LEMUR-2-AMANDA-SVANTE   
1 48269U 21034B   26068.77637527  .00030872  00000+0  11134-2 0  9996
2 48269  97.5829 144.8625 0002703 205.4721 154.6385 15.28469003265849
STARLINK-30702          
1 57955U 23148W   26068.24187221 -.00000848  00000+0 -16506-4 0  9991
2 57955  53.1613  16.2915 0000951  79.3427 280.7681 15.30191301138494
